{
    "links": {
        "self": "http://www.neowsapp.com/rest/v1/neo/54053951?api_key=iIulBulltgU6a56xZRHN4H3l9WmuAYTsLGpBGhQ2"
    },
    "id": "54053951",
    "neo_reference_id": "54053951",
    "name": "(2020 RW4)",
    "designation": "2020 RW4",
    "nasa_jpl_url": "http://ssd.jpl.nasa.gov/sbdb.cgi?sstr=54053951",
    "absolute_magnitude_h": 25.084,
    "estimated_diameter": {
        "kilometers": {
            "estimated_diameter_min": 0.0255714277,
            "estimated_diameter_max": 0.0571794507
        },
        "meters": {
            "estimated_diameter_min": 25.571427726,
            "estimated_diameter_max": 57.179450677
        },
        "miles": {
            "estimated_diameter_min": 0.0158893436,
            "estimated_diameter_max": 0.0355296524
        },
        "feet": {
            "estimated_diameter_min": 83.8957629405,
            "estimated_diameter_max": 187.5966289591
        }
    },
    "is_potentially_hazardous_asteroid": false,
    "close_approach_data": [
        {
            "close_approach_date": "2017-10-26",
            "close_approach_date_full": "2017-Oct-26 18:34",
            "epoch_date_close_approach": 1509042840000,
            "relative_velocity": {
                "kilometers_per_second": "12.820496343",
                "kilometers_per_hour": "46153.7868348626",
                "miles_per_hour": "28678.1682696956"
            },
            "miss_distance": {
                "astronomical": "0.3316876312",
                "lunar": "129.0264885368",
                "kilometers": "49619763.132865544",
                "miles": "30832291.0984267472"
            },
            "orbiting_body": "Earth"
        },
        {
            "close_approach_date": "2020-09-29",
            "close_approach_date_full": "2020-Sep-29 06:56",
            "epoch_date_close_approach": 1601362560000,
            "relative_velocity": {
                "kilometers_per_second": "5.0158242176",
                "kilometers_per_hour": "18056.9671833106",
                "miles_per_hour": "11219.8971923188"
            },
            "miss_distance": {
                "astronomical": "0.1028040404",
                "lunar": "39.9907717156",
                "kilometers": "15379265.471233948",
                "miles": "9556232.4354385624"
            },
            "orbiting_body": "Earth"
        },
        {
            "close_approach_date": "2023-08-29",
            "close_approach_date_full": "2023-Aug-29 14:48",
            "epoch_date_close_approach": 1693320480000,
            "relative_velocity": {
                "kilometers_per_second": "10.4114584521",
                "kilometers_per_hour": "37481.250427565",
                "miles_per_hour": "23289.3914115056"
            },
            "miss_distance": {
                "astronomical": "0.2433816938",
                "lunar": "94.6754788882",
                "kilometers": "36409382.989472206",
                "miles": "22623741.5128242028"
            },
            "orbiting_body": "Earth"
        }
    ],
    "orbital_data": {
        "orbit_id": "6",
        "orbit_determination_date": "2020-10-21 07:40:13",
        "first_observation_date": "2020-09-10",
        "last_observation_date": "2020-10-20",
        "data_arc_in_days": 40,
        "observations_used": 27,
        "orbit_uncertainty": "6",
        "minimum_orbit_intersection": ".0981372",
        "jupiter_tisserand_invariant": "3.636",
        "epoch_osculation": "2459000.5",
        "eccentricity": ".4692053412423702",
        "semi_major_axis": "2.060203773499526",
        "inclination": "2.154224778933056",
        "ascending_node_longitude": "119.5133097244579",
        "orbital_period": "1080.099324118948",
        "perihelion_distance": "1.093545158925862",
        "perihelion_argument": "245.4959872582948",
        "aphelion_distance": "3.02686238807319",
        "perihelion_time": "2459122.058908036575",
        "mean_anomaly": "319.4840901054505",
        "mean_motion": ".3333026805601023",
        "equinox": "J2000",
        "orbit_class": {
            "orbit_class_type": "AMO",
            "orbit_class_description": "Near-Earth asteroid orbits similar to that of 1221 Amor",
            "orbit_class_range": "1.017 AU < q (perihelion) < 1.3 AU"
        }
    },
    "is_sentry_object": false
}